[
    {
        "OBJECT_NAME": "XRISM",
        "OBJECT_ID": "2023-137A",
        "EPOCH": "2026-05-23T10:34:36.105024",
        "MEAN_MOTION": 15.12214955,
        "ECCENTRICITY": 0.0007544,
        "INCLINATION": 31.0008,
        "RA_OF_ASC_NODE": 159.8706,
        "ARG_OF_PERICENTER": 74.7635,
        "MEAN_ANOMALY": 285.3837,
        "EPHEMERIS_TYPE": 0,
        "CLASSIFICATION_TYPE": "U",
        "NORAD_CAT_ID": 57800,
        "ELEMENT_SET_NO": 999,
        "REV_AT_EPOCH": 14911,
        "BSTAR": 0.00014421,
        "MEAN_MOTION_DOT": 2.651e-05,
        "MEAN_MOTION_DDOT": 0
    },
    {
        "OBJECT_NAME": "ACS3",
        "OBJECT_ID": "2024-077B",
        "EPOCH": "2026-05-21T04:57:20.227968",
        "MEAN_MOTION": 13.92598614,
        "ECCENTRICITY": 0.0023535,
        "INCLINATION": 97.1703,
        "RA_OF_ASC_NODE": 66.0319,
        "ARG_OF_PERICENTER": 14.9009,
        "MEAN_ANOMALY": 345.2845,
        "EPHEMERIS_TYPE": 0,
        "CLASSIFICATION_TYPE": "U",
        "NORAD_CAT_ID": 59588,
        "ELEMENT_SET_NO": 999,
        "REV_AT_EPOCH": 10428,
        "BSTAR": 0.0016537915,
        "MEAN_MOTION_DOT": 2.11e-05,
        "MEAN_MOTION_DDOT": 0
    },
    {
        "OBJECT_NAME": "HTV-X1",
        "OBJECT_ID": "2025-241A",
        "EPOCH": "2026-05-23T11:42:31.397760",
        "MEAN_MOTION": 15.63775691,
        "ECCENTRICITY": 0.0007574,
        "INCLINATION": 51.6366,
        "RA_OF_ASC_NODE": 65.3032,
        "ARG_OF_PERICENTER": 85.3833,
        "MEAN_ANOMALY": 274.8027,
        "EPHEMERIS_TYPE": 0,
        "CLASSIFICATION_TYPE": "U",
        "NORAD_CAT_ID": 66174,
        "ELEMENT_SET_NO": 999,
        "REV_AT_EPOCH": 3248,
        "BSTAR": 0.00022674,
        "MEAN_MOTION_DOT": 0.00021176,
        "MEAN_MOTION_DDOT": 0
    },
    {
        "OBJECT_NAME": "SZ-21 MODULE",
        "OBJECT_ID": "2025-246C",
        "EPOCH": "2026-05-23T20:55:24.625056",
        "MEAN_MOTION": 15.74174124,
        "ECCENTRICITY": 0.0005163,
        "INCLINATION": 41.4724,
        "RA_OF_ASC_NODE": 98.5191,
        "ARG_OF_PERICENTER": 210.5977,
        "MEAN_ANOMALY": 149.4566,
        "EPHEMERIS_TYPE": 0,
        "CLASSIFICATION_TYPE": "U",
        "NORAD_CAT_ID": 66515,
        "ELEMENT_SET_NO": 999,
        "REV_AT_EPOCH": 2990,
        "BSTAR": 0.00023932,
        "MEAN_MOTION_DOT": 0.00035214,
        "MEAN_MOTION_DDOT": 0
    }
]